NORAD_CAT_ID,OBJECT_NAME,OBJECT_TYPE,EPOCH,MEAN_MOTION,ECCENTRICITY,INCLINATION,RA_OF_ASC_NODE,ARG_OF_PERICENTER,MEAN_ANOMALY,BSTAR,MEAN_MOTION_DOT,MEAN_MOTION_DDOT,TLE_LINE0,TLE_LINE1,TLE_LINE2,SEMIMAJOR_AXIS,PERIOD,APOGEE,PERIGEE,DECAYED
53151.0,STARLINK-4040,PAYLOAD,2022-09-16 22:00:00,15.40626957,0.0001446,53.2173,105.986,50.7389,254.1733,-0.028199,-0.01071309,0.0,0 STARLINK-4040,1 53151U 22083V   22259.91667824 -.01071309  00000-0 -28199-1 0  9996,2 53151  53.2173 105.9860 0001446  50.7389 254.1733 15.40626957 10263,6822.395,93.468,445.246,443.273,0.0
53151.0,STARLINK-4040,PAYLOAD,2022-09-17 14:00:01,15.39105792,0.0001319,53.2173,102.8415,54.5218,348.1307,-0.0295339999999999,-0.01067148,0.0,0 STARLINK-4040,1 53151U 22083V   22260.58334491 -.01067148  00000-0 -29534-1 0  9992,2 53151  53.2173 102.8415 0001319  54.5218 348.1307 15.39105792  1300,6826.889,93.561,449.655,447.854,0.0
53151.0,STARLINK-4040,PAYLOAD,2022-09-17 22:00:00,15.38348655,0.0001515,53.2174,101.275,49.1477,41.0029,-0.03041,-0.01071427,0.0,0 STARLINK-4040,1 53151U 22083V   22260.91667824 -.01071427  00000-0 -30410-1 0  9998,2 53151  53.2174 101.2750 0001515  49.1477  41.0029 15.38348655 10420,6829.129,93.607,452.029,449.96,0.0
53151.0,STARLINK-4040,PAYLOAD,2022-09-18 14:00:01,15.36827785,0.000152,53.2175,98.1414,58.3915,124.087,-0.0318279999999999,-0.01067384,0.0,0 STARLINK-4040,1 53151U 22083V   22261.58335648 -.01067384  00000-0 -31828-1 0  9999,2 53151  53.2175  98.1414 0001520  58.3915 124.0870 15.36827785  1304,6833.634,93.7,456.538,454.46,0.0
53151.0,STARLINK-4040,PAYLOAD,2022-09-18 22:00:00,15.36067692,0.0001606,53.2175,96.5802,51.8122,175.3636,-0.032589,-0.01066404,0.0,0 STARLINK-4040,1 53151U 22083V   22261.91667824 -.01066404  00000-0 -32589-1 0  9997,2 53151  53.2175  96.5802 0001606  51.8122 175.3636 15.36067692 10571,6835.888000000001,93.746,458.851,456.655,0.0
53151.0,STARLINK-4040,PAYLOAD,2022-09-19 14:00:01,15.34549697,0.0001378,53.2176,93.4575,54.3144,259.6483,-0.034261,-0.01067507,0.0,0 STARLINK-4040,1 53151U 22083V   22262.58334491 -.01067507  00000-0 -34261-1 0  9996,2 53151  53.2176  93.4575 0001378  54.3144 259.6483 15.34549697  1308,6840.395,93.839,463.203,461.318,0.0
53151.0,STARLINK-4040,PAYLOAD,2022-09-19 22:00:00,15.33790493,0.0001462,53.2176,91.9016,46.2529,309.733,-0.035148,-0.01068804,0.0,0 STARLINK-4040,1 53151U 22083V   22262.91667824 -.01068804  00000-0 -35148-1 0  9998,2 53151  53.2176  91.9016 0001462  46.2529 309.7330 15.33790493  1301,6842.651999999999,93.885,465.518,463.517,0.0
53151.0,STARLINK-4040,PAYLOAD,2022-09-20 14:00:01,15.32270477,0.0001554,53.2176,88.7898,45.1626,32.135,-0.0368089999999999,-0.01066823,0.0,0 STARLINK-4040,1 53151U 22083V   22263.58334491 -.01066823  00000-0 -36809-1 0  9997,2 53151  53.2176  88.7898 0001554  45.1626  32.1350 15.32270477  1304,6847.177,93.978,470.106,467.978,0.0
53151.0,STARLINK-4040,PAYLOAD,2022-09-20 22:00:01,15.31509462,0.000169,53.2176,87.2391,43.6004,73.0469,-0.037618,-0.01064674,0.0,0 STARLINK-4040,1 53151U 22083V   22263.91668981 -.01064674  00000-0 -37618-1 0  9999,2 53151  53.2176  87.2391 0001690  43.6004  73.0469 15.31509462  1303,6849.445,94.025,472.468,470.152,0.0
53151.0,STARLINK-4040,PAYLOAD,2022-09-21 22:00:00,15.29229449,0.0001663,53.2176,82.5929,48.7417,180.2245,-0.0402449999999999,-0.01061138,0.0,0 STARLINK-4040,1 53151U 22083V   22264.91667824 -.01061138  00000-0 -40245-1 0  9997,2 53151  53.2176  82.5929 0001663  48.7417 180.2245 15.29229449  1306,6856.251,94.165,479.257,476.976,0.0
53151.0,STARLINK-4040,PAYLOAD,2022-09-22 14:00:01,15.27725469,0.0001443,53.2168,79.5037,50.5479,248.7698,-0.043065,-0.01082097,0.0,0 STARLINK-4040,1 53151U 22083V   22265.58334491 -.01082097  00000-0 -43065-1 0  9992,2 53151  53.2168  79.5037 0001443  50.5479 248.7698 15.27725469  1301,6860.751,94.258,483.606,481.626,0.0
53151.0,STARLINK-4040,PAYLOAD,2022-09-22 22:00:00,15.26853243,0.0001476,53.2168,77.9642,53.4875,279.6969,-0.03755,-0.00930386,0.0,0 STARLINK-4040,1 53151U 22083V   22265.91667824 -.00930386  00000-0 -37550-1 0  9992,2 53151  53.2168  77.9642 0001476  53.4875 279.6969 15.26853243 11185,6863.363,94.312,486.241,484.215,0.0
53151.0,STARLINK-4040,PAYLOAD,2022-09-23 06:00:00,15.26193915,0.0001355,53.2175,76.421,49.8674,316.1652,-0.044379,-0.010656,0.0,0 STARLINK-4040,1 53151U 22083V   22266.25001157 -.01065600  00000-0 -44379-1 0  9997,2 53151  53.2175  76.4210 0001355  49.8674 316.1652 15.26193915 11235,6865.34,94.352,488.135,486.274,0.0
53151.0,STARLINK-4040,PAYLOAD,2022-09-23 14:00:01,15.25473713,0.0001274,53.2168,74.8847,56.3841,341.6117,-0.047757,-0.01117053,0.0,0 STARLINK-4040,1 53151U 22083V   22266.58334491 -.01117053  00000-0 -47757-1 0  9996,2 53151  53.2168  74.8847 0001274  56.3841 341.6117 15.25473713  1306,6867.5,94.397,490.24,488.49,0.0
53151.0,STARLINK-4040,PAYLOAD,2022-09-23 22:00:00,15.24669993,0.0001567,53.2166,73.3501,47.4754,21.6143,-0.046105,-0.01057878,0.0,0 STARLINK-4040,1 53151U 22083V   22266.91667824 -.01057878  00000-0 -46105-1 0  9996,2 53151  53.2166  73.3501 0001567  47.4754  21.6143 15.24669993  1304,6869.9140000000025,94.447,492.855,490.702,0.0
53151.0,STARLINK-4040,PAYLOAD,2022-09-24 06:00:00,15.23913975,0.0001594,53.2172,71.8127,45.1367,54.1128,-0.047421,-0.01063157,0.0,0 STARLINK-4040,1 53151U 22083V   22267.25001157 -.01063157  00000-0 -47421-1 0  9994,2 53151  53.2172  71.8127 0001594  45.1367  54.1128 15.23913975 11398,6872.185,94.494,495.146,492.955,0.0
53151.0,STARLINK-4040,PAYLOAD,2022-09-24 14:00:01,15.23182064,0.0001464,53.2167,70.281,58.2253,70.3196,-0.050295,-0.01099722,0.0,0 STARLINK-4040,1 53151U 22083V   22267.58335648 -.01099722  00000-0 -50295-1 0  9995,2 53151  53.2167  70.2810 0001464  58.2253  70.3196 15.23182064  1301,6874.387,94.539,497.258,495.245,0.0
53151.0,STARLINK-4040,PAYLOAD,2022-09-24 22:00:00,15.223920800000002,0.0001526,53.2173,68.7503,57.632,99.1986,-0.049342,-0.01057568,0.0,0 STARLINK-4040,1 53151U 22083V   22267.91667824 -.01057568  00000-0 -49342-1 0  9999,2 53151  53.2173  68.7503 0001526  57.6320  99.1986 15.22392080  1302,6876.765,94.588,499.679,497.58,0.0
53151.0,STARLINK-4040,PAYLOAD,2022-09-25 06:00:00,15.2163465,0.0001588,53.2174,67.2193,53.4933,130.7592,-0.050637,-0.01060926,0.0,0 STARLINK-4040,1 53151U 22083V   22268.25001157 -.01060926  00000-0 -50637-1 0  9999,2 53151  53.2174  67.2193 0001588  53.4933 130.7592 15.21634650 11547,6879.047,94.635,502.004,499.819,0.0
53151.0,STARLINK-4040,PAYLOAD,2022-09-25 14:00:01,15.20875842,0.0001615,53.2176,65.6928,54.6724,156.0881,-0.051847,-0.01062107,0.0,0 STARLINK-4040,1 53151U 22083V   22268.58334491 -.01062107  00000-0 -51847-1 0  9992,2 53151  53.2176  65.6928 0001615  54.6724 156.0881 15.20875842  1303,6881.334,94.682,504.311,502.088,0.0
53151.0,STARLINK-4040,PAYLOAD,2022-09-25 22:00:01,15.20114401,0.0001571999999999,53.2172,64.1681,53.8515,182.5686,-0.052813,-0.01058282,0.0,0 STARLINK-4040,1 53151U 22083V   22268.91668981 -.01058282  00000-0 -52813-1 0  9996,2 53151  53.2172  64.1681 0001572  53.8515 182.5686 15.20114401  1304,6883.632,94.73,506.579,504.415,0.0
53151.0,STARLINK-4040,PAYLOAD,2022-09-26 10:00:00,15.18976865,0.0001524,53.2175,61.881,53.1134,39.927,-0.0547659999999999,-0.01061239,0.0,0 STARLINK-4040,1 53151U 22083V   22269.41667824 -.01061239  00000-0 -54766-1 0  9992,2 53151  53.2175  61.8810 0001524  53.1134  39.9270 15.18976865 11720,6887.068,94.801,509.983,507.884,0.0
53151.0,STARLINK-4040,PAYLOAD,2022-09-26 14:00:01,15.18620196,0.0001396999999999,53.2166,61.1224,64.9128,219.8857,-0.057078,-0.01105937,0.0,0 STARLINK-4040,1 53151U 22083V   22269.58334491 -.01105937  00000-0 -57078-1 0  9994,2 53151  53.2166  61.1224 0001397  64.9128 219.8857 15.18620196  1309,6888.147,94.823,510.974,509.05,0.0
53151.0,STARLINK-4040,PAYLOAD,2022-09-26 22:00:00,15.17845767,0.0001513,53.2161,59.6035,53.4871,254.1759,-0.057151,-0.01084463,0.0,0 STARLINK-4040,1 53151U 22083V   22269.91667824 -.01084463  00000-0 -57151-1 0  9992,2 53151  53.2161  59.6035 0001513  53.4871 254.1759 15.17845767  1309,6890.49,94.871,513.3969999999998,511.312,0.0
53151.0,STARLINK-4040,PAYLOAD,2022-09-27 06:00:00,15.17075916,0.0001440999999999,53.2166,58.0832,50.1582,279.4573,-0.0576879999999999,-0.01071577,0.0,0 STARLINK-4040,1 53151U 22083V   22270.25001157 -.01071577  00000-0 -57688-1 0  9999,2 53151  53.2166  58.0832 0001441  50.1582 279.4573 15.17075916 11840,6892.82,94.919,515.679,513.692,0.0
53151.0,STARLINK-4040,PAYLOAD,2022-09-27 14:00:01,15.16343517,0.0001336,53.2167,56.5671,65.1062,285.5283,-0.061133,-0.01108893,0.0,0 STARLINK-4040,1 53151U 22083V   22270.58334491 -.01108893  00000-0 -61133-1 0  9997,2 53151  53.2167  56.5671 0001336  65.1062 285.5283 15.16343517  1307,6895.04,94.965,517.826,515.984,0.0
53151.0,STARLINK-4040,PAYLOAD,2022-09-27 22:00:01,15.1561111,0.0001294,53.2161,55.0531,43.8325,326.9699,-0.064547,-0.01143625,0.0,0 STARLINK-4040,1 53151U 22083V   22270.91668981 -.01143625  00000-0 -64547-1 0  9992,2 53151  53.2161  55.0531 0001294  43.8325 326.9699 15.15611110  1305,6897.261,95.011,520.018,518.2330000000002,0.0
53151.0,STARLINK-4040,PAYLOAD,2022-09-28 06:00:00,15.14797667,0.0001376999999999,53.2173,53.5366,52.3718,337.6053,-0.061587,-0.01071763,0.0,0 STARLINK-4040,1 53151U 22083V   22271.25001157 -.01071763  00000-0 -61587-1 0  9990,2 53151  53.2173  53.5366 0001377  52.3718 337.6053 15.14797667 12003,6899.73,95.062,522.545,520.645,0.0
53151.0,STARLINK-4040,PAYLOAD,2022-09-28 14:00:01,15.14040662,0.000149,53.2175,52.0265,50.9187,357.3514,-0.063163,-0.01075549,0.0,0 STARLINK-4040,1 53151U 22083V   22271.58334491 -.01075549  00000-0 -63163-1 0  9994,2 53151  53.2175  52.0265 0001490  50.9187 357.3514 15.14040662  1305,6902.03,95.11,524.923,522.866,0.0
